{
  "type": "Feature",
  "properties": {
    "@context": "https://schemas.allmaps.org/map/2/context.json",
    "id": "https://annotations.allmaps.org/maps/001bf2dcf44af08b",
    "type": "GeoreferencedMap",
    "created": "2026-09-24T02:18:28.848Z",
    "modified": "2026-09-24T02:18:28.848Z",
    "resource": {
      "id": "https://rosetta.slv.vic.gov.au/iiif/2/IE15486831:FL21306156.jpg",
      "uri": "https://rosetta.slv.vic.gov.au/iiif/2/IE15486831:FL21306156.jpg",
      "type": "ImageService2",
      "width": 4873,
      "height": 7000,
      "partOf": [
        {
          "type": "Canvas",
          "id": "https://rosetta.slv.vic.gov.au/delivery/iiif/presentation/2.1/IE15486831/canvas/FL21306156",
          "label": {
            "none": [
              "Map 1"
            ]
          },
          "partOf": [
            {
              "type": "Manifest",
              "id": "https://rosetta.slv.vic.gov.au/delivery/iiif/presentation/2.1/IE15486831/manifest",
              "label": {
                "none": [
                  "Electoral district of Geelong Electoral district of Geelong"
                ]
              }
            }
          ]
        }
      ],
      "provider": [
        {
          "label": {
            "none": [
              "State Library Victoria"
            ]
          },
          "homepage": [
            {
              "id": "https://www.slv.vic.gov.au/search-discover"
            }
          ]
        }
      ]
    },
    "gcps": [
      {
        "id": "0e0f46b53022ebcb",
        "index": 2.0860874456608935,
        "resource": [
          2111,
          3134
        ],
        "geo": [
          144.36617359350817,
          -38.109522428311884
        ]
      },
      {
        "id": "35fba0d5753e4f05",
        "index": 0.9560263196104106,
        "resource": [
          3036,
          3335
        ],
        "geo": [
          144.42454591201061,
          -38.12594281112305
        ]
      },
      {
        "id": "aff28dcf96b5eb81",
        "index": 1.186210564397467,
        "resource": [
          3167,
          2621
        ],
        "geo": [
          144.44301694442947,
          -38.09106164995794
        ]
      },
      {
        "id": "e0aace9a28bdfd16",
        "index": 3.9047320256192424,
        "resource": [
          1450,
          3931
        ],
        "geo": [
          144.3152728058414,
          -38.14417097391301
        ]
      }
    ],
    "resourceMask": [
      [
        310,
        1814
      ],
      [
        329,
        5672
      ],
      [
        4345,
        5695
      ],
      [
        3828,
        1776
      ]
    ],
    "transformation": {
      "type": "polynomial",
      "options": {
        "order": 1
      }
    },
    "_allmaps": {
      "id": "https://annotations.allmaps.org/maps/001bf2dcf44af08b",
      "version": "https://annotations.allmaps.org/maps/001bf2dcf44af08b@14c4f1d11bae72f4",
      "image": {
        "id": "https://annotations.allmaps.org/images/01c97d411566c9e0",
        "version": "https://annotations.allmaps.org/images/01c97d411566c9e0@c815a6f0c00b96a9",
        "canvases": [
          {
            "id": "https://annotations.allmaps.org/canvases/e53165614e5fadde",
            "manifests": [
              {
                "id": "https://annotations.allmaps.org/manifests/689763dd594faeeb"
              }
            ]
          }
        ]
      },
      "scale": 0.175816,
      "area": 473935703.31
    }
  },
  "geometry": {
    "type": "Polygon",
    "coordinates": [
      [
        [
          144.265788946,
          -38.030868717
        ],
        [
          144.220665566,
          -38.222961476
        ],
        [
          144.481933418,
          -38.252395391
        ],
        [
          144.495357295,
          -38.053825265
        ],
        [
          144.265788946,
          -38.030868717
        ]
      ]
    ]
  }
}