{
  "type": "Feature",
  "properties": {
    "@context": "https://schemas.allmaps.org/map/2/context.json",
    "id": "https://annotations.allmaps.org/maps/0766a4809755c15f",
    "type": "GeoreferencedMap",
    "created": "2026-09-24T02:07:19.299Z",
    "modified": "2026-09-24T02:07:19.299Z",
    "resource": {
      "id": "https://rosetta.slv.vic.gov.au/iiif/2/IE15496283:FL21305860.jpg",
      "uri": "https://rosetta.slv.vic.gov.au/iiif/2/IE15496283:FL21305860.jpg",
      "type": "ImageService2",
      "width": 4869,
      "height": 7000,
      "partOf": [
        {
          "type": "Canvas",
          "id": "https://rosetta.slv.vic.gov.au/delivery/iiif/presentation/2.1/IE15496283/canvas/FL21305860",
          "label": {
            "none": [
              "Map 1"
            ]
          },
          "partOf": [
            {
              "type": "Manifest",
              "id": "https://rosetta.slv.vic.gov.au/delivery/iiif/presentation/2.1/IE15496283/manifest",
              "label": {
                "none": [
                  "Geelong, County of Grant Victoria /"
                ]
              }
            }
          ]
        }
      ],
      "provider": [
        {
          "label": {
            "none": [
              "State Library Victoria"
            ]
          },
          "homepage": [
            {
              "id": "https://www.slv.vic.gov.au/search-discover"
            }
          ]
        }
      ]
    },
    "gcps": [
      {
        "id": "226778c47a431248",
        "index": 4.0700673049678215,
        "resource": [
          368,
          1796
        ],
        "geo": [
          144.35281415185517,
          -38.1427140620507
        ]
      },
      {
        "id": "2f67bb8b618b1195",
        "index": 7.824386503944432,
        "resource": [
          2239,
          5762
        ],
        "geo": [
          144.3533130093689,
          -38.16360223037075
        ]
      },
      {
        "id": "30b1e941793e351c",
        "index": 5.612995685584189,
        "resource": [
          476,
          495
        ],
        "geo": [
          144.35403120132474,
          -38.136704928210705
        ]
      },
      {
        "id": "93c2c29700ad37e5",
        "index": 0.4772882538143829,
        "resource": [
          2232,
          2177
        ],
        "geo": [
          144.36077331685698,
          -38.147237699512125
        ]
      },
      {
        "id": "a8de621e14558483",
        "index": 6.210513303116594,
        "resource": [
          3947,
          3972
        ],
        "geo": [
          144.36698514390275,
          -38.158345247612694
        ]
      },
      {
        "id": "abcf4e9c888fd141",
        "index": 1.5623388867542594,
        "resource": [
          2233,
          3750
        ],
        "geo": [
          144.35743908764005,
          -38.154473365141975
        ]
      },
      {
        "id": "cf7b5d577453c32c",
        "index": 3.9304510516213265,
        "resource": [
          610,
          5262
        ],
        "geo": [
          144.34493035173222,
          -38.15860620731088
        ]
      },
      {
        "id": "e22a1fe489ffd539",
        "index": 2.022679495451387,
        "resource": [
          3095,
          2172
        ],
        "geo": [
          144.3657439890514,
          -38.1486819825996
        ]
      }
    ],
    "resourceMask": [
      [
        176,
        145
      ],
      [
        184,
        6866
      ],
      [
        4674,
        6848
      ],
      [
        4718,
        143
      ]
    ],
    "transformation": {
      "type": "polynomial",
      "options": {
        "order": 1
      }
    },
    "_allmaps": {
      "id": "https://annotations.allmaps.org/maps/0766a4809755c15f",
      "version": "https://annotations.allmaps.org/maps/0766a4809755c15f@5a0f57f09c510215",
      "image": {
        "id": "https://annotations.allmaps.org/images/23f5a5317d6c7161",
        "version": "https://annotations.allmaps.org/images/23f5a5317d6c7161@3927a54fb98b7f98",
        "canvases": [
          {
            "id": "https://annotations.allmaps.org/canvases/b5ad2fa0fd4fe038",
            "manifests": [
              {
                "id": "https://annotations.allmaps.org/manifests/b0a74ac12bea9bc7"
              }
            ]
          }
        ]
      },
      "scale": 1.888489,
      "area": 8500394.1
    }
  },
  "geometry": {
    "type": "Polygon",
    "coordinates": [
      [
        [
          144.353942843,
          -38.1347129
        ],
        [
          144.339482335,
          -38.165253727
        ],
        [
          144.364514144,
          -38.172532722
        ],
        [
          144.379229572,
          -38.142152903
        ],
        [
          144.353942843,
          -38.1347129
        ]
      ]
    ]
  }
}