{
  "type": "Feature",
  "properties": {
    "@context": "https://schemas.allmaps.org/map/2/context.json",
    "id": "https://annotations.allmaps.org/maps/3309403f3fe8d13b",
    "type": "GeoreferencedMap",
    "created": "2026-10-08T05:08:19.679Z",
    "modified": "2026-10-08T05:08:19.679Z",
    "resource": {
      "id": "https://rosetta.slv.vic.gov.au/iiif/2/IE7318798:FL21466835.jpg",
      "uri": "https://rosetta.slv.vic.gov.au/iiif/2/IE7318798:FL21466835.jpg",
      "type": "ImageService2",
      "width": 7000,
      "height": 6146,
      "partOf": [
        {
          "type": "Canvas",
          "id": "https://rosetta.slv.vic.gov.au/delivery/iiif/presentation/2.1/IE7318798/canvas/FL21466835",
          "label": {
            "none": [
              "Map 1"
            ]
          },
          "partOf": [
            {
              "type": "Manifest",
              "id": "https://rosetta.slv.vic.gov.au/delivery/iiif/presentation/2.1/IE7318798/manifest",
              "label": {
                "none": [
                  "Melbourne and Metropolitan Board of Works detail plan. no. 3114, Box Hill"
                ]
              }
            }
          ]
        }
      ],
      "provider": [
        {
          "label": {
            "none": [
              "State Library Victoria"
            ]
          },
          "homepage": [
            {
              "id": "https://www.slv.vic.gov.au/search-discover"
            }
          ]
        }
      ]
    },
    "gcps": [
      {
        "id": "199e5fcd82ab79fe",
        "index": 0.5830865432896756,
        "resource": [
          1261,
          5264
        ],
        "geo": [
          145.0986964607721,
          -37.8333800968647
        ]
      },
      {
        "id": "239c4b5490b7dd54",
        "index": 3.870364471828076,
        "resource": [
          6090,
          5249
        ],
        "geo": [
          145.10200835051955,
          -37.83377001731242
        ]
      },
      {
        "id": "53c707be986c133c",
        "index": 2.4839197773650303,
        "resource": [
          6090,
          2521
        ],
        "geo": [
          145.10227577018827,
          -37.83224281712169
        ]
      },
      {
        "id": "a48d2078bbd2523a",
        "index": 1.5680844252445403,
        "resource": [
          1231,
          2499
        ],
        "geo": [
          145.09894330969752,
          -37.83186913566616
        ]
      },
      {
        "id": "b605493b87e8f95e",
        "index": 4.282068210696429,
        "resource": [
          1209,
          838
        ],
        "geo": [
          145.09908893623447,
          -37.83095895758336
        ]
      }
    ],
    "resourceMask": [
      [
        628,
        574
      ],
      [
        663,
        5837
      ],
      [
        6723,
        5803
      ],
      [
        6637,
        566
      ]
    ],
    "transformation": {
      "type": "polynomial",
      "options": {
        "order": 1
      }
    },
    "_allmaps": {
      "id": "https://annotations.allmaps.org/maps/3309403f3fe8d13b",
      "version": "https://annotations.allmaps.org/maps/3309403f3fe8d13b@71c7548518188a0a",
      "image": {
        "id": "https://annotations.allmaps.org/images/06d517a2a1e0fa3c",
        "version": "https://annotations.allmaps.org/images/06d517a2a1e0fa3c@66e81878113da99e",
        "canvases": [
          {
            "id": "https://annotations.allmaps.org/canvases/421e1b78f00e9c10",
            "manifests": [
              {
                "id": "https://annotations.allmaps.org/manifests/15679634a0fd99b8"
              }
            ]
          }
        ]
      },
      "scale": 16.310763,
      "area": 119088.39
    }
  },
  "geometry": {
    "type": "Polygon",
    "coordinates": [
      [
        [
          145.098716708,
          -37.83076167
        ],
        [
          145.098229761,
          -37.833658007
        ],
        [
          145.102390079,
          -37.834110053
        ],
        [
          145.102839518,
          -37.831224067
        ],
        [
          145.098716708,
          -37.83076167
        ]
      ]
    ]
  }
}