{
  "type": "Feature",
  "properties": {
    "@context": "https://schemas.allmaps.org/map/2/context.json",
    "id": "https://annotations.allmaps.org/maps/64e1268e3c76ac1e",
    "type": "GeoreferencedMap",
    "created": "2026-10-08T05:22:23.226Z",
    "modified": "2026-10-08T05:22:23.226Z",
    "resource": {
      "id": "https://rosetta.slv.vic.gov.au/iiif/2/IE7317943:FL21466921.jpg",
      "uri": "https://rosetta.slv.vic.gov.au/iiif/2/IE7317943:FL21466921.jpg",
      "type": "ImageService2",
      "width": 7000,
      "height": 4370,
      "partOf": [
        {
          "type": "Canvas",
          "id": "https://rosetta.slv.vic.gov.au/delivery/iiif/presentation/2.1/IE7317943/canvas/FL21466921",
          "label": {
            "none": [
              "Map 1"
            ]
          },
          "partOf": [
            {
              "type": "Manifest",
              "id": "https://rosetta.slv.vic.gov.au/delivery/iiif/presentation/2.1/IE7317943/manifest",
              "label": {
                "none": [
                  "Melbourne and Metropolitan Board of Works detail plan. no. 3117, Municipality of Box Hill"
                ]
              }
            }
          ]
        }
      ],
      "provider": [
        {
          "label": {
            "none": [
              "State Library Victoria"
            ]
          },
          "homepage": [
            {
              "id": "https://www.slv.vic.gov.au/search-discover"
            }
          ]
        }
      ]
    },
    "gcps": [
      {
        "id": "0fb013085fce64ee",
        "index": 0.7705163042016026,
        "resource": [
          379,
          3775
        ],
        "geo": [
          145.10435123405483,
          -37.83687192644541
        ]
      },
      {
        "id": "3e50e7aa046baf80",
        "index": 1.2252477985657806,
        "resource": [
          4518,
          881
        ],
        "geo": [
          145.10210299571037,
          -37.833363679680794
        ]
      },
      {
        "id": "6606c698c6237786",
        "index": 6.311381964401368,
        "resource": [
          4509,
          3788
        ],
        "geo": [
          145.10497440816675,
          -37.833700232820405
        ]
      },
      {
        "id": "7bf833f5731fc260",
        "index": 3.2314017371719523,
        "resource": [
          2037,
          853
        ],
        "geo": [
          145.10174887308375,
          -37.835295055604064
        ]
      },
      {
        "id": "903151dbb8ac7049",
        "index": 4.676019908452083,
        "resource": [
          3337,
          878
        ],
        "geo": [
          145.10193650810584,
          -37.8342894745504
        ]
      },
      {
        "id": "aa0b19d3e5b2a3ef",
        "index": 5.870333732255566,
        "resource": [
          3324,
          3661
        ],
        "geo": [
          145.1046840206314,
          -37.8346246696102
        ]
      },
      {
        "id": "f9a94392530de3ef",
        "index": 2.4889835429487217,
        "resource": [
          2234,
          2951
        ],
        "geo": [
          145.10388433834208,
          -37.835383263813895
        ]
      }
    ],
    "resourceMask": [
      [
        343,
        488
      ],
      [
        282,
        4175
      ],
      [
        6535,
        4120
      ],
      [
        6517,
        488
      ]
    ],
    "transformation": {
      "type": "polynomial",
      "options": {
        "order": 1
      }
    },
    "_allmaps": {
      "id": "https://annotations.allmaps.org/maps/64e1268e3c76ac1e",
      "version": "https://annotations.allmaps.org/maps/64e1268e3c76ac1e@8e20fb68dccf54e2",
      "image": {
        "id": "https://annotations.allmaps.org/images/7c637a528386c78d",
        "version": "https://annotations.allmaps.org/images/7c637a528386c78d@1b50c7d5fdb044ee",
        "canvases": [
          {
            "id": "https://annotations.allmaps.org/canvases/019cca306a6e1d6a",
            "manifests": [
              {
                "id": "https://annotations.allmaps.org/manifests/b58d72c830982d58"
              }
            ]
          }
        ]
      },
      "scale": 11.494245,
      "area": 172101.99
    }
  },
  "geometry": {
    "type": "Polygon",
    "coordinates": [
      [
        [
          145.10114005,
          -37.836551908
        ],
        [
          145.104762278,
          -37.837009306
        ],
        [
          145.105591723,
          -37.832184185
        ],
        [
          145.102012494,
          -37.831793765
        ],
        [
          145.10114005,
          -37.836551908
        ]
      ]
    ]
  }
}