{
  "type": "Feature",
  "properties": {
    "@context": "https://schemas.allmaps.org/map/2/context.json",
    "id": "https://annotations.allmaps.org/maps/67a83533379c2f82",
    "type": "GeoreferencedMap",
    "created": "2026-09-24T05:17:06.282Z",
    "modified": "2026-09-24T05:17:06.282Z",
    "resource": {
      "id": "https://rosetta.slv.vic.gov.au/iiif/2/IE15484685:FL21305306.jpg",
      "uri": "https://rosetta.slv.vic.gov.au/iiif/2/IE15484685:FL21305306.jpg",
      "type": "ImageService2",
      "width": 7000,
      "height": 5383,
      "partOf": [
        {
          "type": "Canvas",
          "id": "https://rosetta.slv.vic.gov.au/delivery/iiif/presentation/2.1/IE15484685/canvas/FL21305306",
          "label": {
            "none": [
              "Map 1"
            ]
          },
          "partOf": [
            {
              "type": "Manifest",
              "id": "https://rosetta.slv.vic.gov.au/delivery/iiif/presentation/2.1/IE15484685/manifest",
              "label": {
                "none": [
                  "Map of Collingwood showing the western part (or Fitzroy ward) as it will be in a very short time according to the Collingwood improvements act ... /"
                ]
              }
            }
          ]
        }
      ],
      "provider": [
        {
          "label": {
            "none": [
              "State Library Victoria"
            ]
          },
          "homepage": [
            {
              "id": "https://www.slv.vic.gov.au/search-discover"
            }
          ]
        }
      ]
    },
    "gcps": [
      {
        "id": "04e1633609b5220c",
        "index": 1.8233460828078853,
        "resource": [
          3660,
          3392
        ],
        "geo": [
          144.99257014113914,
          -37.80251599702154
        ]
      },
      {
        "id": "0a208d880926801f",
        "index": 3.1109338355189062,
        "resource": [
          1095,
          4413
        ],
        "geo": [
          144.97720646723332,
          -37.80574082980913
        ]
      },
      {
        "id": "78b5dcc84331234b",
        "index": 0.12578892586844248,
        "resource": [
          5060,
          2794
        ],
        "geo": [
          145.001224863387,
          -37.8006297012573
        ]
      },
      {
        "id": "7eb28a6682b5a1dc",
        "index": 4.53632071007911,
        "resource": [
          4950,
          4512
        ],
        "geo": [
          144.9993886191159,
          -37.80850960278981
        ]
      },
      {
        "id": "f59105b8a850791b",
        "index": 2.6553170402167767,
        "resource": [
          1078,
          2430
        ],
        "geo": [
          144.9787407287758,
          -37.79673204723872
        ]
      }
    ],
    "resourceMask": [
      [
        5385,
        284
      ],
      [
        2964,
        264
      ],
      [
        299,
        1660
      ],
      [
        303,
        5120
      ],
      [
        5369,
        5142
      ]
    ],
    "transformation": {
      "type": "polynomial",
      "options": {
        "order": 1
      }
    },
    "_allmaps": {
      "id": "https://annotations.allmaps.org/maps/67a83533379c2f82",
      "version": "https://annotations.allmaps.org/maps/67a83533379c2f82@4435eae9e0c65abc",
      "image": {
        "id": "https://annotations.allmaps.org/images/bc22ed21e3735e75",
        "version": "https://annotations.allmaps.org/images/bc22ed21e3735e75@76baa9d47e0b01d1",
        "canvases": [
          {
            "id": "https://annotations.allmaps.org/canvases/3c67a64907a5799c",
            "manifests": [
              {
                "id": "https://annotations.allmaps.org/manifests/6ffb2cc9c7fd93c6"
              }
            ]
          }
        ]
      },
      "scale": 1.957111,
      "area": 5958706.48
    }
  },
  "geometry": {
    "type": "Polygon",
    "coordinates": [
      [
        [
          145.004999676,
          -37.789343594
        ],
        [
          144.991124588,
          -37.787853919
        ],
        [
          144.974770476,
          -37.792707025
        ],
        [
          144.972156668,
          -37.808549934
        ],
        [
          145.001205748,
          -37.811575341
        ],
        [
          145.004999676,
          -37.789343594
        ]
      ]
    ]
  }
}