{
  "type": "Feature",
  "properties": {
    "@context": "https://schemas.allmaps.org/map/2/context.json",
    "id": "https://annotations.allmaps.org/maps/68a8e54977c32f4d",
    "type": "GeoreferencedMap",
    "created": "2026-10-01T01:42:42.548Z",
    "modified": "2026-10-01T01:42:42.548Z",
    "resource": {
      "id": "https://rosetta.slv.vic.gov.au/iiif/2/IE9533457:FL21666751.jpg",
      "uri": "https://rosetta.slv.vic.gov.au/iiif/2/IE9533457:FL21666751.jpg",
      "type": "ImageService2",
      "width": 5469,
      "height": 7000,
      "partOf": [
        {
          "type": "Canvas",
          "id": "https://rosetta.slv.vic.gov.au/delivery/iiif/presentation/2.1/IE9533457/canvas/FL21666751",
          "label": {
            "none": [
              "Map 1"
            ]
          },
          "partOf": [
            {
              "type": "Manifest",
              "id": "https://rosetta.slv.vic.gov.au/delivery/iiif/presentation/2.1/IE9533457/manifest",
              "label": {
                "none": [
                  "Melbourne and its suburbs"
                ]
              }
            }
          ]
        }
      ],
      "provider": [
        {
          "label": {
            "none": [
              "State Library Victoria"
            ]
          },
          "homepage": [
            {
              "id": "https://www.slv.vic.gov.au/search-discover"
            }
          ]
        }
      ]
    },
    "gcps": [
      {
        "id": "40b6ad9b4ed1d7e4",
        "index": 0.9655712189116725,
        "resource": [
          3822,
          5590
        ],
        "geo": [
          144.9631991,
          -37.8142351
        ]
      },
      {
        "id": "790cd1abfeacfe79",
        "index": 2.0125180556136226,
        "resource": [
          4642,
          3993
        ],
        "geo": [
          144.974248,
          -37.8012458
        ]
      },
      {
        "id": "90b9cc6f1a5625fd",
        "index": 6.262207062599886,
        "resource": [
          2975,
          1438
        ],
        "geo": [
          144.9602225,
          -37.7780749
        ]
      },
      {
        "id": "94a3ff4473a641bb",
        "index": 5.736283835516969,
        "resource": [
          3091,
          3271
        ],
        "geo": [
          144.958479,
          -37.7937385
        ]
      },
      {
        "id": "a205f7d0ecf2b984",
        "index": 3.9885730377364252,
        "resource": [
          3069,
          5712
        ],
        "geo": [
          144.9548048,
          -37.8144166
        ]
      },
      {
        "id": "bfdcae42fc6c54b2",
        "index": 4.842085732152435,
        "resource": [
          2958,
          5496
        ],
        "geo": [
          144.9539142,
          -37.8124511
        ]
      },
      {
        "id": "ea4663c20f7d10e7",
        "index": 1.983030383293534,
        "resource": [
          4293,
          4719
        ],
        "geo": [
          144.9690057,
          -37.8072166
        ]
      }
    ],
    "resourceMask": [
      [
        522,
        1324
      ],
      [
        2869,
        1331
      ],
      [
        2849,
        898
      ],
      [
        3095,
        902
      ],
      [
        3128,
        1331
      ],
      [
        5139,
        1412
      ],
      [
        5140,
        6687
      ],
      [
        535,
        6637
      ]
    ],
    "transformation": {
      "type": "polynomial",
      "options": {
        "order": 1
      }
    },
    "_allmaps": {
      "id": "https://annotations.allmaps.org/maps/68a8e54977c32f4d",
      "version": "https://annotations.allmaps.org/maps/68a8e54977c32f4d@5524e5406b0d24cf",
      "image": {
        "id": "https://annotations.allmaps.org/images/d3cee46bafdbeae4",
        "version": "https://annotations.allmaps.org/images/d3cee46bafdbeae4@ea5a585d08d0a9d2",
        "canvases": [
          {
            "id": "https://annotations.allmaps.org/canvases/ca8daffface45e79",
            "manifests": [
              {
                "id": "https://annotations.allmaps.org/manifests/c2f155f0b8160bd9"
              }
            ]
          }
        ]
      },
      "scale": 1.054642,
      "area": 22131795.75
    }
  },
  "geometry": {
    "type": "Polygon",
    "coordinates": [
      [
        [
          144.934140547,
          -37.774761813
        ],
        [
          144.926395736,
          -37.819909435
        ],
        [
          144.975416738,
          -37.824687811
        ],
        [
          144.9832331,
          -37.779877359
        ],
        [
          144.961913455,
          -37.777286661
        ],
        [
          144.962198181,
          -37.773609894
        ],
        [
          144.959581441,
          -37.77334317
        ],
        [
          144.959152183,
          -37.777041642
        ],
        [
          144.934140547,
          -37.774761813
        ]
      ]
    ]
  }
}