{
  "type": "Feature",
  "properties": {
    "@context": "https://schemas.allmaps.org/map/2/context.json",
    "id": "https://annotations.allmaps.org/maps/a9704cbb1561ae6e",
    "type": "GeoreferencedMap",
    "created": "2026-09-24T01:57:49.421Z",
    "modified": "2026-09-24T01:57:49.421Z",
    "resource": {
      "id": "https://rosetta.slv.vic.gov.au/iiif/2/IE15498464:FL21308342.jpg",
      "uri": "https://rosetta.slv.vic.gov.au/iiif/2/IE15498464:FL21308342.jpg",
      "type": "ImageService2",
      "width": 7000,
      "height": 5136,
      "partOf": [
        {
          "type": "Canvas",
          "id": "https://rosetta.slv.vic.gov.au/delivery/iiif/presentation/2.1/IE15498464/canvas/FL21308342",
          "label": {
            "none": [
              "Map 1"
            ]
          },
          "partOf": [
            {
              "type": "Manifest",
              "id": "https://rosetta.slv.vic.gov.au/delivery/iiif/presentation/2.1/IE15498464/manifest",
              "label": {
                "none": [
                  "Map of Geelong and its suburbs showing the division of the wards, and boundaries of the suburbs / Map of Geelong and its suburbs"
                ]
              }
            }
          ]
        }
      ],
      "provider": [
        {
          "label": {
            "none": [
              "State Library Victoria"
            ]
          },
          "homepage": [
            {
              "id": "https://www.slv.vic.gov.au/search-discover"
            }
          ]
        }
      ]
    },
    "gcps": [
      {
        "id": "0f211de5f79a9d51",
        "index": 7.866523958605914,
        "resource": [
          4238,
          4320
        ],
        "geo": [
          144.35618082806712,
          -38.16341006127217
        ]
      },
      {
        "id": "0f7a14ab16c3bf28",
        "index": 5.781267616208536,
        "resource": [
          2964,
          4114
        ],
        "geo": [
          144.34492517359593,
          -38.15859415372795
        ]
      },
      {
        "id": "4efd3a6a045f8c76",
        "index": 4.089380103654102,
        "resource": [
          3410,
          3399
        ],
        "geo": [
          144.35129679046634,
          -38.15459744675967
        ]
      },
      {
        "id": "5086b5896e772529",
        "index": 6.976501088027435,
        "resource": [
          2606,
          1954
        ],
        "geo": [
          144.34782599374898,
          -38.14304443663243
        ]
      },
      {
        "id": "670a6298b1245ff1",
        "index": 3.4080242740715265,
        "resource": [
          1593,
          694
        ],
        "geo": [
          144.34166459602142,
          -38.131094028187995
        ]
      },
      {
        "id": "81261b7bb7b07d02",
        "index": 2.096551838317153,
        "resource": [
          3697,
          2952
        ],
        "geo": [
          144.35546216952645,
          -38.15270920122651
        ]
      },
      {
        "id": "93d45dd9054c6ee8",
        "index": 1.8141449285473419,
        "resource": [
          4783,
          2944
        ],
        "geo": [
          144.36542190892982,
          -38.1555943535923
        ]
      },
      {
        "id": "aa5b7dbfb9402b0c",
        "index": 0.3117668310028977,
        "resource": [
          4786,
          2038
        ],
        "geo": [
          144.36824857508867,
          -38.14938074192898
        ]
      }
    ],
    "resourceMask": [
      [
        1420,
        340
      ],
      [
        1530,
        4812
      ],
      [
        5468,
        4839
      ],
      [
        5468,
        307
      ]
    ],
    "transformation": {
      "type": "polynomial",
      "options": {
        "order": 1
      }
    },
    "_allmaps": {
      "id": "https://annotations.allmaps.org/maps/a9704cbb1561ae6e",
      "version": "https://annotations.allmaps.org/maps/a9704cbb1561ae6e@871613b2c821041b",
      "image": {
        "id": "https://annotations.allmaps.org/images/b8fb76f2b1fc353c",
        "version": "https://annotations.allmaps.org/images/b8fb76f2b1fc353c@f8c4cbce1e46870d",
        "canvases": [
          {
            "id": "https://annotations.allmaps.org/canvases/849de2c95c46d822",
            "manifests": [
              {
                "id": "https://annotations.allmaps.org/manifests/bc6c76268b4658ef"
              }
            ]
          }
        ]
      },
      "scale": 1.186686,
      "area": 12765481.79
    }
  },
  "geometry": {
    "type": "Polygon",
    "coordinates": [
      [
        [
          144.341191963,
          -38.128367175
        ],
        [
          144.329278541,
          -38.159271563
        ],
        [
          144.366550331,
          -38.170461378
        ],
        [
          144.379680888,
          -38.139458706
        ],
        [
          144.341191963,
          -38.128367175
        ]
      ]
    ]
  }
}