{
  "type": "Feature",
  "properties": {
    "@context": "https://schemas.allmaps.org/map/2/context.json",
    "id": "https://annotations.allmaps.org/maps/c2318c5365c7b3ab",
    "type": "GeoreferencedMap",
    "created": "2026-09-24T02:15:10.891Z",
    "modified": "2026-09-24T02:15:10.891Z",
    "resource": {
      "id": "https://rosetta.slv.vic.gov.au/iiif/2/IE15497265:FL21306572.jpg",
      "uri": "https://rosetta.slv.vic.gov.au/iiif/2/IE15497265:FL21306572.jpg",
      "type": "ImageService2",
      "width": 7000,
      "height": 4956,
      "partOf": [
        {
          "type": "Canvas",
          "id": "https://rosetta.slv.vic.gov.au/delivery/iiif/presentation/2.1/IE15497265/canvas/FL21306572",
          "label": {
            "none": [
              "Map 1"
            ]
          },
          "partOf": [
            {
              "type": "Manifest",
              "id": "https://rosetta.slv.vic.gov.au/delivery/iiif/presentation/2.1/IE15497265/manifest",
              "label": {
                "none": [
                  "Map of the town and suburbs of Geelong comprising the lands in the parishes of Gheringhap, Moorpanyal, Barrabool, Duneed, Moolap, Bellerine & Pawit together with the positions of the bar and the proposed improvements /"
                ]
              }
            }
          ]
        }
      ],
      "provider": [
        {
          "label": {
            "none": [
              "State Library Victoria"
            ]
          },
          "homepage": [
            {
              "id": "https://www.slv.vic.gov.au/search-discover"
            }
          ]
        }
      ]
    },
    "gcps": [
      {
        "id": "2d79ea70a879f57b",
        "index": 2.9201629033503362,
        "resource": [
          3011,
          1734
        ],
        "geo": [
          144.4236253582153,
          -38.12600229558764
        ]
      },
      {
        "id": "bd3654d8e90952fc",
        "index": 1.9721139580517382,
        "resource": [
          6513,
          2603
        ],
        "geo": [
          144.69842345852368,
          -38.216862031738984
        ]
      },
      {
        "id": "d2a5140e0251da53",
        "index": 3.6019038122988785,
        "resource": [
          3916,
          1083
        ],
        "geo": [
          144.50921978315318,
          -38.09042578312876
        ]
      },
      {
        "id": "eae870c9e7935eaa",
        "index": 0.43800398257824025,
        "resource": [
          5705,
          3931
        ],
        "geo": [
          144.61388868135703,
          -38.29131848735499
        ]
      }
    ],
    "resourceMask": [
      [
        0,
        0
      ],
      [
        0,
        4956
      ],
      [
        7000,
        4956
      ],
      [
        7000,
        0
      ]
    ],
    "transformation": {
      "type": "polynomial",
      "options": {
        "order": 1
      }
    },
    "_allmaps": {
      "id": "https://annotations.allmaps.org/maps/c2318c5365c7b3ab",
      "version": "https://annotations.allmaps.org/maps/c2318c5365c7b3ab@b48d057b5c8daa90",
      "image": {
        "id": "https://annotations.allmaps.org/images/42097fb53e2fcf67",
        "version": "https://annotations.allmaps.org/images/42097fb53e2fcf67@3112f977d7ce42e8",
        "canvases": [
          {
            "id": "https://annotations.allmaps.org/canvases/3e313ff91a3fde85",
            "manifests": [
              {
                "id": "https://annotations.allmaps.org/manifests/3951699e69975a0b"
              }
            ]
          }
        ]
      },
      "scale": 0.13807,
      "area": 1819820694.79
    }
  },
  "geometry": {
    "type": "Polygon",
    "coordinates": [
      [
        [
          144.20279361,
          -37.982860981
        ],
        [
          144.130194401,
          -38.299775104
        ],
        [
          144.704586836,
          -38.370786431
        ],
        [
          144.777186045,
          -38.054181659
        ],
        [
          144.20279361,
          -37.982860981
        ]
      ]
    ]
  }
}