{
  "type": "Feature",
  "properties": {
    "@context": "https://schemas.allmaps.org/map/2/context.json",
    "id": "https://annotations.allmaps.org/maps/c35b4ec0e245e5e9",
    "type": "GeoreferencedMap",
    "created": "2026-10-09T05:55:41.506Z",
    "modified": "2026-10-09T05:55:41.506Z",
    "resource": {
      "id": "https://rosetta.slv.vic.gov.au/iiif/2/IE7332897:FL21461849.jpg",
      "uri": "https://rosetta.slv.vic.gov.au/iiif/2/IE7332897:FL21461849.jpg",
      "type": "ImageService2",
      "width": 7000,
      "height": 4605,
      "partOf": [
        {
          "type": "Canvas",
          "id": "https://rosetta.slv.vic.gov.au/delivery/iiif/presentation/2.1/IE7332897/canvas/FL21461849",
          "label": {
            "none": [
              "Map 1"
            ]
          },
          "partOf": [
            {
              "type": "Manifest",
              "id": "https://rosetta.slv.vic.gov.au/delivery/iiif/presentation/2.1/IE7332897/manifest",
              "label": {
                "none": [
                  "Melbourne and Metropolitan Board of Works detail plan. no. 1798, City of St. Kilda"
                ]
              }
            }
          ]
        }
      ],
      "provider": [
        {
          "label": {
            "none": [
              "State Library Victoria"
            ]
          },
          "homepage": [
            {
              "id": "https://www.slv.vic.gov.au/search-discover"
            }
          ]
        }
      ]
    },
    "gcps": [
      {
        "id": "04b7f8cacca70937",
        "index": 0.7803745173957739,
        "resource": [
          6640,
          1243
        ],
        "geo": [
          144.99069591382892,
          -37.89173983072505
        ]
      },
      {
        "id": "0fddca1d8322dac1",
        "index": 5.319932884714193,
        "resource": [
          1207,
          4013
        ],
        "geo": [
          144.9848764716179,
          -37.89098643882392
        ]
      },
      {
        "id": "af5077c48cc045ab",
        "index": 3.85769303203533,
        "resource": [
          980,
          563
        ],
        "geo": [
          144.98681801281612,
          -37.888796772524174
        ]
      },
      {
        "id": "b965045f528888c6",
        "index": 4.381999238850676,
        "resource": [
          4305,
          590
        ],
        "geo": [
          144.98930263211616,
          -37.89032310280886
        ]
      },
      {
        "id": "ba5dcb7fbf1e0dae",
        "index": 2.1869710415885395,
        "resource": [
          2207,
          554
        ],
        "geo": [
          144.98772831209777,
          -37.88934276361928
        ]
      },
      {
        "id": "ec019dadb2c6f089",
        "index": 1.8645974963628629,
        "resource": [
          6260,
          628
        ],
        "geo": [
          144.99072919350897,
          -37.891153278849885
        ]
      }
    ],
    "resourceMask": [
      [
        109,
        64
      ],
      [
        25,
        4406
      ],
      [
        6955,
        4457
      ],
      [
        6968,
        77
      ]
    ],
    "transformation": {
      "type": "polynomial",
      "options": {
        "order": 1
      }
    },
    "_allmaps": {
      "id": "https://annotations.allmaps.org/maps/c35b4ec0e245e5e9",
      "version": "https://annotations.allmaps.org/maps/c35b4ec0e245e5e9@d1f404dda400ed7b",
      "image": {
        "id": "https://annotations.allmaps.org/images/05a6a9df32c46d40",
        "version": "https://annotations.allmaps.org/images/05a6a9df32c46d40@e1a65aad1dcb646d",
        "canvases": [
          {
            "id": "https://annotations.allmaps.org/canvases/4a2d8469598de8d9",
            "manifests": [
              {
                "id": "https://annotations.allmaps.org/manifests/316d4a064c65be55"
              }
            ]
          }
        ]
      },
      "scale": 11.877405,
      "area": 213141.55
    }
  },
  "geometry": {
    "type": "Polygon",
    "coordinates": [
      [
        [
          144.986449642,
          -37.888115859
        ],
        [
          144.983749207,
          -37.890701811
        ],
        [
          144.988955714,
          -37.893807224
        ],
        [
          144.991625567,
          -37.891166923
        ],
        [
          144.986449642,
          -37.888115859
        ]
      ]
    ]
  }
}