{
  "type": "Feature",
  "properties": {
    "@context": "https://schemas.allmaps.org/map/2/context.json",
    "id": "https://annotations.allmaps.org/maps/cfa3d41c1de36d09",
    "type": "GeoreferencedMap",
    "created": "2026-10-09T05:37:35.165Z",
    "modified": "2026-10-09T05:37:35.165Z",
    "resource": {
      "id": "https://rosetta.slv.vic.gov.au/iiif/2/IE7318411:FL20709240.jpg",
      "uri": "https://rosetta.slv.vic.gov.au/iiif/2/IE7318411:FL20709240.jpg",
      "type": "ImageService2",
      "width": 4254,
      "height": 7000,
      "partOf": [
        {
          "type": "Canvas",
          "id": "https://rosetta.slv.vic.gov.au/delivery/iiif/presentation/2.1/IE7318411/canvas/FL20709240",
          "label": {
            "none": [
              "Map 1"
            ]
          },
          "partOf": [
            {
              "type": "Manifest",
              "id": "https://rosetta.slv.vic.gov.au/delivery/iiif/presentation/2.1/IE7318411/manifest",
              "label": {
                "none": [
                  "Melbourne and Metropolitan Board of Works detail plan. no. 1397, City of St. Kilda"
                ]
              }
            }
          ]
        }
      ],
      "provider": [
        {
          "label": {
            "none": [
              "State Library Victoria"
            ]
          },
          "homepage": [
            {
              "id": "https://www.slv.vic.gov.au/search-discover"
            }
          ]
        }
      ]
    },
    "gcps": [
      {
        "id": "13a72bd64c406392",
        "index": 2.4553805661191093,
        "resource": [
          3742,
          5651
        ],
        "geo": [
          144.98772933648524,
          -37.87460919178822
        ]
      },
      {
        "id": "2eb689df8176a60b",
        "index": 0.11883138910486823,
        "resource": [
          1959,
          1759
        ],
        "geo": [
          144.99112593946614,
          -37.87674491413802
        ]
      },
      {
        "id": "80906fbfb919fa21",
        "index": 1.4007868475894256,
        "resource": [
          2929,
          1772
        ],
        "geo": [
          144.99024263852596,
          -37.877093522755125
        ]
      },
      {
        "id": "d96ffdc8597446eb",
        "index": 3.9319930630559012,
        "resource": [
          686,
          5630
        ],
        "geo": [
          144.99055020187637,
          -37.87352586864186
        ]
      }
    ],
    "resourceMask": [
      [
        282,
        1435
      ],
      [
        165,
        5955
      ],
      [
        4109,
        5936
      ],
      [
        4089,
        1445
      ]
    ],
    "transformation": {
      "type": "polynomial",
      "options": {
        "order": 1
      }
    },
    "_allmaps": {
      "id": "https://annotations.allmaps.org/maps/cfa3d41c1de36d09",
      "version": "https://annotations.allmaps.org/maps/cfa3d41c1de36d09@498cfd64737dfe4c",
      "image": {
        "id": "https://annotations.allmaps.org/images/a69e6af9765aa7fa",
        "version": "https://annotations.allmaps.org/images/a69e6af9765aa7fa@38b3d01add7c6162",
        "canvases": [
          {
            "id": "https://annotations.allmaps.org/canvases/23dcfbe078e4ada7",
            "manifests": [
              {
                "id": "https://annotations.allmaps.org/manifests/c52ec14d16cfc7d0"
              }
            ]
          }
        ]
      },
      "scale": 11.178012,
      "area": 139744.96
    }
  },
  "geometry": {
    "type": "Polygon",
    "coordinates": [
      [
        [
          144.992819906,
          -37.876376471
        ],
        [
          144.990879352,
          -37.873104595
        ],
        [
          144.98726526,
          -37.874539112
        ],
        [
          144.989318513,
          -37.877740848
        ],
        [
          144.992819906,
          -37.876376471
        ]
      ]
    ]
  }
}