{
  "type": "Feature",
  "properties": {
    "@context": "https://schemas.allmaps.org/map/2/context.json",
    "id": "https://annotations.allmaps.org/maps/daddb89a7aa0881d",
    "type": "GeoreferencedMap",
    "created": "2026-09-30T05:14:09.142Z",
    "modified": "2026-09-30T05:14:09.142Z",
    "resource": {
      "id": "https://rosetta.slv.vic.gov.au/iiif/2/IE9533457:FL21666752.jpg",
      "uri": "https://rosetta.slv.vic.gov.au/iiif/2/IE9533457:FL21666752.jpg",
      "type": "ImageService2",
      "width": 5399,
      "height": 7000,
      "partOf": [
        {
          "type": "Canvas",
          "id": "https://rosetta.slv.vic.gov.au/delivery/iiif/presentation/2.1/IE9533457/canvas/FL21666752",
          "label": {
            "none": [
              "Map 2"
            ]
          },
          "partOf": [
            {
              "type": "Manifest",
              "id": "https://rosetta.slv.vic.gov.au/delivery/iiif/presentation/2.1/IE9533457/manifest",
              "label": {
                "none": [
                  "Melbourne and its suburbs"
                ]
              }
            }
          ]
        }
      ],
      "provider": [
        {
          "label": {
            "none": [
              "State Library Victoria"
            ]
          },
          "homepage": [
            {
              "id": "https://www.slv.vic.gov.au/search-discover"
            }
          ]
        }
      ]
    },
    "gcps": [
      {
        "id": "01f8338ab7fe0f13",
        "index": 2.4787029244397636,
        "resource": [
          1327,
          1536
        ],
        "geo": [
          144.99371738917608,
          -37.78181213067907
        ]
      },
      {
        "id": "515946570c706ccd",
        "index": 3.039799603496868,
        "resource": [
          4476,
          4698
        ],
        "geo": [
          145.02349498475076,
          -37.81308810767721
        ]
      },
      {
        "id": "6a3d96dba517ebaa",
        "index": 1.3479541626632874,
        "resource": [
          1551,
          3562
        ],
        "geo": [
          144.99299711173387,
          -37.79983715147163
        ]
      },
      {
        "id": "7bca1bd4cd812432",
        "index": 4.226578023801043,
        "resource": [
          1294,
          5389
        ],
        "geo": [
          144.9879815799788,
          -37.81555751864992
        ]
      },
      {
        "id": "d0e220fbabbf700d",
        "index": 0.20739082473881065,
        "resource": [
          381,
          3556
        ],
        "geo": [
          144.98073616255755,
          -37.79857669723647
        ]
      }
    ],
    "resourceMask": [
      [
        247,
        1285
      ],
      [
        276,
        6648
      ],
      [
        4958,
        6654
      ],
      [
        4905,
        699
      ],
      [
        3213,
        1292
      ]
    ],
    "transformation": {
      "type": "polynomial",
      "options": {
        "order": 1
      }
    },
    "_allmaps": {
      "id": "https://annotations.allmaps.org/maps/daddb89a7aa0881d",
      "version": "https://annotations.allmaps.org/maps/daddb89a7aa0881d@9e0c8fbc9bb356bf",
      "image": {
        "id": "https://annotations.allmaps.org/images/69bca2585b4760fc",
        "version": "https://annotations.allmaps.org/images/69bca2585b4760fc@4d945a03edfb2f1d",
        "canvases": [
          {
            "id": "https://annotations.allmaps.org/canvases/344f374f3ed6285e",
            "manifests": [
              {
                "id": "https://annotations.allmaps.org/manifests/c2f155f0b8160bd9"
              }
            ]
          }
        ]
      },
      "scale": 1.028647,
      "area": 24150566.69
    }
  },
  "geometry": {
    "type": "Polygon",
    "coordinates": [
      [
        [
          144.982293839,
          -37.778437135
        ],
        [
          144.975167701,
          -37.825510472
        ],
        [
          145.025947397,
          -37.830753372
        ],
        [
          145.033634545,
          -37.778462599
        ],
        [
          145.014457828,
          -37.781788688
        ],
        [
          144.982293839,
          -37.778437135
        ]
      ]
    ]
  }
}