{
  "type": "Feature",
  "properties": {
    "@context": "https://schemas.allmaps.org/map/2/context.json",
    "id": "https://annotations.allmaps.org/maps/e901cbcdaa1ed010",
    "type": "GeoreferencedMap",
    "created": "2026-10-07T05:20:52.643Z",
    "modified": "2026-10-07T05:20:52.643Z",
    "resource": {
      "id": "https://rosetta.slv.vic.gov.au/iiif/2/IE7328695:FL21465679.jpg",
      "uri": "https://rosetta.slv.vic.gov.au/iiif/2/IE7328695:FL21465679.jpg",
      "type": "ImageService2",
      "width": 7000,
      "height": 4569,
      "partOf": [
        {
          "type": "Canvas",
          "id": "https://rosetta.slv.vic.gov.au/delivery/iiif/presentation/2.1/IE7328695/canvas/FL21465679",
          "label": {
            "none": [
              "Map 1"
            ]
          },
          "partOf": [
            {
              "type": "Manifest",
              "id": "https://rosetta.slv.vic.gov.au/delivery/iiif/presentation/2.1/IE7328695/manifest",
              "label": {
                "none": [
                  "Melbourne and Metropolitan Board of Works detail plan. no. 2113, Town of Brighton"
                ]
              }
            }
          ]
        }
      ],
      "provider": [
        {
          "label": {
            "none": [
              "State Library Victoria"
            ]
          },
          "homepage": [
            {
              "id": "https://www.slv.vic.gov.au/search-discover"
            }
          ]
        }
      ]
    },
    "gcps": [
      {
        "id": "0383e9800d334b0a",
        "index": 1.884139979309026,
        "resource": [
          1118,
          1369
        ],
        "geo": [
          144.98921157787265,
          -37.89967582456154
        ]
      },
      {
        "id": "3ec5409390a2c5bb",
        "index": 5.637597016469177,
        "resource": [
          6268,
          2566
        ],
        "geo": [
          144.9937917482789,
          -37.90111427452983
        ]
      },
      {
        "id": "5919f6c8d8e17ffb",
        "index": 2.6180575496154086,
        "resource": [
          6207,
          1382
        ],
        "geo": [
          144.9939580242701,
          -37.9002243628815
        ]
      },
      {
        "id": "752b550373ee82ba",
        "index": 3.864289442326938,
        "resource": [
          6176,
          3794
        ],
        "geo": [
          144.99359658305883,
          -37.90200130593918
        ]
      },
      {
        "id": "877409fd957adbf7",
        "index": 4.645867078056227,
        "resource": [
          4568,
          3714
        ],
        "geo": [
          144.99212113400256,
          -37.90183498836458
        ]
      },
      {
        "id": "e6ba0e5780f36e53",
        "index": 0.6172705183932127,
        "resource": [
          1137,
          3783
        ],
        "geo": [
          144.98887768146665,
          -37.90147734042846
        ]
      }
    ],
    "resourceMask": [
      [
        129,
        924
      ],
      [
        14,
        4486
      ],
      [
        6724,
        4442
      ],
      [
        6724,
        930
      ]
    ],
    "transformation": {
      "type": "polynomial",
      "options": {
        "order": 1
      }
    },
    "_allmaps": {
      "id": "https://annotations.allmaps.org/maps/e901cbcdaa1ed010",
      "version": "https://annotations.allmaps.org/maps/e901cbcdaa1ed010@9b09c6c39bc753cf",
      "image": {
        "id": "https://annotations.allmaps.org/images/18e0c0255e16972e",
        "version": "https://annotations.allmaps.org/images/18e0c0255e16972e@cea4c489da32db40",
        "canvases": [
          {
            "id": "https://annotations.allmaps.org/canvases/621b2f43129fe304",
            "manifests": [
              {
                "id": "https://annotations.allmaps.org/manifests/05b384dabb440bec"
              }
            ]
          }
        ]
      },
      "scale": 11.995299,
      "area": 163522.53
    }
  },
  "geometry": {
    "type": "Polygon",
    "coordinates": [
      [
        [
          144.988345237,
          -37.899239997
        ],
        [
          144.987750617,
          -37.901896158
        ],
        [
          144.994004729,
          -37.902569532
        ],
        [
          144.994485422,
          -37.899938745
        ],
        [
          144.988345237,
          -37.899239997
        ]
      ]
    ]
  }
}