{
  "type": "Feature",
  "properties": {
    "@context": "https://schemas.allmaps.org/map/2/context.json",
    "id": "https://annotations.allmaps.org/maps/fe68be16314a4aac",
    "type": "GeoreferencedMap",
    "created": "2026-10-07T05:55:56.846Z",
    "modified": "2026-10-07T05:55:56.846Z",
    "resource": {
      "id": "https://rosetta.slv.vic.gov.au/iiif/2/IE7329611:FL21469545.jpg",
      "uri": "https://rosetta.slv.vic.gov.au/iiif/2/IE7329611:FL21469545.jpg",
      "type": "ImageService2",
      "width": 7000,
      "height": 4409,
      "partOf": [
        {
          "type": "Canvas",
          "id": "https://rosetta.slv.vic.gov.au/delivery/iiif/presentation/2.1/IE7329611/canvas/FL21469545",
          "label": {
            "none": [
              "Map 1"
            ]
          },
          "partOf": [
            {
              "type": "Manifest",
              "id": "https://rosetta.slv.vic.gov.au/delivery/iiif/presentation/2.1/IE7329611/manifest",
              "label": {
                "none": [
                  "Melbourne and Metropolitan Board of Works plan, scale 160 feet to 1 inch. no. 86, Municipality of Brighton"
                ]
              }
            }
          ]
        }
      ],
      "provider": [
        {
          "label": {
            "none": [
              "State Library Victoria"
            ]
          },
          "homepage": [
            {
              "id": "https://www.slv.vic.gov.au/search-discover"
            }
          ]
        }
      ]
    },
    "gcps": [
      {
        "id": "20a701e0242a8c61",
        "index": 1.9353215340957612,
        "resource": [
          1713,
          509
        ],
        "geo": [
          144.99573676778869,
          -37.91348162316782
        ]
      },
      {
        "id": "6b1e5feed5311ae5",
        "index": 2.410577611748071,
        "resource": [
          3106,
          723
        ],
        "geo": [
          144.99732772646138,
          -37.90923058090956
        ]
      },
      {
        "id": "6e19f3169037844e",
        "index": 0.16347961571597613,
        "resource": [
          964,
          863
        ],
        "geo": [
          144.99668414167866,
          -37.915953725296944
        ]
      },
      {
        "id": "8c32059d65a915de",
        "index": 4.809743262183112,
        "resource": [
          2062,
          3046
        ],
        "geo": [
          145.00587525424157,
          -37.91352353400021
        ]
      },
      {
        "id": "935ac5cb25840c8e",
        "index": 6.494861841530929,
        "resource": [
          5135,
          3101
        ],
        "geo": [
          145.00724935419828,
          -37.90390275886787
        ]
      },
      {
        "id": "953f86f5b842af8c",
        "index": 3.3622004374754546,
        "resource": [
          3380,
          953
        ],
        "geo": [
          144.99836862478782,
          -37.90851278910751
        ]
      },
      {
        "id": "d3505df7f21376ed",
        "index": 5.800010157317475,
        "resource": [
          6432,
          1645
        ],
        "geo": [
          145.00276292635863,
          -37.899343516428154
        ]
      }
    ],
    "resourceMask": [
      [
        395,
        320
      ],
      [
        302,
        4176
      ],
      [
        6513,
        4200
      ],
      [
        6538,
        381
      ]
    ],
    "transformation": {
      "type": "polynomial",
      "options": {
        "order": 1
      }
    },
    "_allmaps": {
      "id": "https://annotations.allmaps.org/maps/fe68be16314a4aac",
      "version": "https://annotations.allmaps.org/maps/fe68be16314a4aac@76f64179061cc48a",
      "image": {
        "id": "https://annotations.allmaps.org/images/5667cd2aabe5e9c0",
        "version": "https://annotations.allmaps.org/images/5667cd2aabe5e9c0@70304e0ed815926f",
        "canvases": [
          {
            "id": "https://annotations.allmaps.org/canvases/feea2b20d1f8d5fe",
            "manifests": [
              {
                "id": "https://annotations.allmaps.org/manifests/c91453d9d2a00873"
              }
            ]
          }
        ]
      },
      "scale": 2.907242,
      "area": 2804849.77
    }
  },
  "geometry": {
    "type": "Polygon",
    "coordinates": [
      [
        [
          144.994367331,
          -37.917501779
        ],
        [
          145.009084494,
          -37.919431226
        ],
        [
          145.01243314,
          -37.90014364
        ],
        [
          144.997822007,
          -37.898440744
        ],
        [
          144.994367331,
          -37.917501779
        ]
      ]
    ]
  }
}